{
  "type": "FeatureCollection",
  "features": [
    {
      "type": "Feature",
      "properties": {
        "norad_id": 35014,
        "name": "COSMOS 2251 DEB",
        "group": "cosmos-2251-debris",
        "lat": -51.75354697805247,
        "lon": 6.594942263240271,
        "alt_km": 651.5835092588295,
        "timestamp": "2025-12-20T16:47:36.680494+00:00",
        "meta_object_name": "COSMOS 2251 DEB",
        "meta_object_id": "1993-036AGB",
        "meta_epoch": "2025-12-17T09:17:45.359520",
        "meta_mean_motion": 14.75277506,
        "meta_eccentricity": 0.00070196,
        "meta_inclination": 73.9998,
        "meta_ra_of_asc_node": 34.4305,
        "meta_arg_of_pericenter": 212.3979,
        "meta_mean_anomaly": 147.6764,
        "meta_ephemeris_type": 0,
        "meta_classification_type": "U",
        "meta_norad_cat_id": 35014,
        "meta_element_set_no": 999,
        "meta_rev_at_epoch": 71405,
        "meta_bstar": 0.0010947042,
        "meta_mean_motion_dot": 7.39e-05,
        "meta_mean_motion_ddot": 0,
        "tle_line1": "1 35014U 93036AGB 25351.38733055  .00007390  00000+0  10947-2 0  9995",
        "tle_line2": "2 35014  73.9998  34.4305 0007019 212.3979 147.6764 14.75277506714055"
      },
      "geometry": {
        "type": "Point",
        "coordinates": [
          6.594942263240271,
          -51.75354697805247
        ]
      }
    },
    {
      "type": "Feature",
      "properties": {
        "norad_id": 35015,
        "name": "COSMOS 2251 DEB",
        "group": "cosmos-2251-debris",
        "lat": -58.68010532363029,
        "lon": 68.01561299185529,
        "alt_km": 790.6824022987057,
        "timestamp": "2025-12-20T16:47:36.680504+00:00",
        "meta_object_name": "COSMOS 2251 DEB",
        "meta_object_id": "1993-036AGC",
        "meta_epoch": "2025-12-15T22:56:26.813760",
        "meta_mean_motion": 14.46895598,
        "meta_eccentricity": 0.0074243,
        "meta_inclination": 73.9481,
        "meta_ra_of_asc_node": 228.6843,
        "meta_arg_of_pericenter": 96.6585,
        "meta_mean_anomaly": 285.5342,
        "meta_ephemeris_type": 0,
        "meta_classification_type": "U",
        "meta_norad_cat_id": 35015,
        "meta_element_set_no": 999,
        "meta_rev_at_epoch": 65487,
        "meta_bstar": 0.00054698056,
        "meta_mean_motion_dot": 2.026e-05,
        "meta_mean_motion_ddot": 0,
        "tle_line1": "1 35015U 93036AGC 25349.95586590  .00002026  00000+0  54698-3 0  9999",
        "tle_line2": "2 35015  73.9481 228.6843 0074243  96.6585 285.5342 14.46895598654878"
      },
      "geometry": {
        "type": "Point",
        "coordinates": [
          68.01561299185529,
          -58.68010532363029
        ]
      }
    },
    {
      "type": "Feature",
      "properties": {
        "norad_id": 35016,
        "name": "COSMOS 2251 DEB",
        "group": "cosmos-2251-debris",
        "lat": -66.82913327035904,
        "lon": -122.60278418059937,
        "alt_km": 783.5110614184041,
        "timestamp": "2025-12-20T16:47:36.680514+00:00",
        "meta_object_name": "COSMOS 2251 DEB",
        "meta_object_id": "1993-036AGD",
        "meta_epoch": "2025-12-20T02:10:44.587776",
        "meta_mean_motion": 14.35073352,
        "meta_eccentricity": 0.01141383,
        "meta_inclination": 73.9302,
        "meta_ra_of_asc_node": 280.857,
        "meta_arg_of_pericenter": 196.2798,
        "meta_mean_anomaly": 184.6869,
        "meta_ephemeris_type": 0,
        "meta_classification_type": "U",
        "meta_norad_cat_id": 35016,
        "meta_element_set_no": 999,
        "meta_rev_at_epoch": 86888,
        "meta_bstar": 0.0002031915,
        "meta_mean_motion_dot": 5.96e-06,
        "meta_mean_motion_ddot": 0,
        "tle_line1": "1 35016U 93036AGD 25354.09079384  .00000596  00000+0  20319-3 0  9992",
        "tle_line2": "2 35016  73.9302 280.8570 0114138 196.2798 184.6869 14.35073352868884"
      },
      "geometry": {
        "type": "Point",
        "coordinates": [
          -122.60278418059937,
          -66.82913327035904
        ]
      }
    },
    {
      "type": "Feature",
      "properties": {
        "norad_id": 35018,
        "name": "COSMOS 2251 DEB",
        "group": "cosmos-2251-debris",
        "lat": -53.62722868126367,
        "lon": -60.15992643135265,
        "alt_km": 1167.6200533053561,
        "timestamp": "2025-12-20T16:47:36.680524+00:00",
        "meta_object_name": "COSMOS 2251 DEB",
        "meta_object_id": "1993-036AGF",
        "meta_epoch": "2025-12-17T17:22:46.408800",
        "meta_mean_motion": 13.67124195,
        "meta_eccentricity": 0.03487062,
        "meta_inclination": 73.976,
        "meta_ra_of_asc_node": 101.7737,
        "meta_arg_of_pericenter": 9.849,
        "meta_mean_anomaly": 350.9229,
        "meta_ephemeris_type": 0,
        "meta_classification_type": "U",
        "meta_norad_cat_id": 35018,
        "meta_element_set_no": 999,
        "meta_rev_at_epoch": 83254,
        "meta_bstar": 0.00069190439,
        "meta_mean_motion_dot": 8.6e-06,
        "meta_mean_motion_ddot": 0,
        "tle_line1": "1 35018U 93036AGF 25351.72414825  .00000860  00000+0  69190-3 0  9998",
        "tle_line2": "2 35018  73.9760 101.7737 0348706   9.8490 350.9229 13.67124195832546"
      },
      "geometry": {
        "type": "Point",
        "coordinates": [
          -60.15992643135265,
          -53.62722868126367
        ]
      }
    },
    {
      "type": "Feature",
      "properties": {
        "norad_id": 35020,
        "name": "COSMOS 2251 DEB",
        "group": "cosmos-2251-debris",
        "lat": 73.06743004832752,
        "lon": -66.28931321601992,
        "alt_km": 737.1202619105788,
        "timestamp": "2025-12-20T16:47:36.680534+00:00",
        "meta_object_name": "COSMOS 2251 DEB",
        "meta_object_id": "1993-036AGH",
        "meta_epoch": "2025-12-16T23:43:20.938656",
        "meta_mean_motion": 14.62811627,
        "meta_eccentricity": 0.00912676,
        "meta_inclination": 74.046,
        "meta_ra_of_asc_node": 190.8083,
        "meta_arg_of_pericenter": 304.0673,
        "meta_mean_anomaly": 55.1854,
        "meta_ephemeris_type": 0,
        "meta_classification_type": "U",
        "meta_norad_cat_id": 35020,
        "meta_element_set_no": 999,
        "meta_rev_at_epoch": 88300,
        "meta_bstar": 0.00011860336,
        "meta_mean_motion_dot": 6.08e-06,
        "meta_mean_motion_ddot": 0,
        "tle_line1": "1 35020U 93036AGH 25350.98843679  .00000608  00000+0  11860-3 0  9992",
        "tle_line2": "2 35020  74.0460 190.8083 0091267 304.0673  55.1854 14.62811627883005"
      },
      "geometry": {
        "type": "Point",
        "coordinates": [
          -66.28931321601992,
          73.06743004832752
        ]
      }
    },
    {
      "type": "Feature",
      "properties": {
        "norad_id": 35022,
        "name": "COSMOS 2251 DEB",
        "group": "cosmos-2251-debris",
        "lat": 74.0109328116354,
        "lon": 38.33175044946777,
        "alt_km": 663.5092491352243,
        "timestamp": "2025-12-20T16:47:36.680544+00:00",
        "meta_object_name": "COSMOS 2251 DEB",
        "meta_object_id": "1993-036AGK",
        "meta_epoch": "2025-12-15T14:45:27.251136",
        "meta_mean_motion": 14.60846809,
        "meta_eccentricity": 0.00465822,
        "meta_inclination": 74.027,
        "meta_ra_of_asc_node": 316.4327,
        "meta_arg_of_pericenter": 155.4398,
        "meta_mean_anomaly": 204.9001,
        "meta_ephemeris_type": 0,
        "meta_classification_type": "U",
        "meta_norad_cat_id": 35022,
        "meta_element_set_no": 999,
        "meta_rev_at_epoch": 59185,
        "meta_bstar": 0.00033959453,
        "meta_mean_motion_dot": 1.655e-05,
        "meta_mean_motion_ddot": 0,
        "tle_line1": "1 35022U 93036AGK 25349.61489874  .00001655  00000+0  33959-3 0  9991",
        "tle_line2": "2 35022  74.0270 316.4327 0046582 155.4398 204.9001 14.60846809591850"
      },
      "geometry": {
        "type": "Point",
        "coordinates": [
          38.33175044946777,
          74.0109328116354
        ]
      }
    },
    {
      "type": "Feature",
      "properties": {
        "norad_id": 35023,
        "name": "COSMOS 2251 DEB",
        "group": "cosmos-2251-debris",
        "lat": 10.12774414490442,
        "lon": 13.59986096041584,
        "alt_km": 588.151217201601,
        "timestamp": "2025-12-20T16:47:36.680553+00:00",
        "meta_object_name": "COSMOS 2251 DEB",
        "meta_object_id": "1993-036AGL",
        "meta_epoch": "2025-12-20T06:54:45.480096",
        "meta_mean_motion": 14.95311277,
        "meta_eccentricity": 0.0033714,
        "meta_inclination": 74.0363,
        "meta_ra_of_asc_node": 197.3611,
        "meta_arg_of_pericenter": 274.0279,
        "meta_mean_anomaly": 200.3785,
        "meta_ephemeris_type": 0,
        "meta_classification_type": "U",
        "meta_norad_cat_id": 35023,
        "meta_element_set_no": 999,
        "meta_rev_at_epoch": 88392,
        "meta_bstar": 0.0008609,
        "meta_mean_motion_dot": 9.571e-05,
        "meta_mean_motion_ddot": 0,
        "tle_line1": "1 35023U 93036AGL 25354.28802639  .00009571  00000+0  86090-3 0  9998",
        "tle_line2": "2 35023  74.0363 197.3611 0033714 274.0279 200.3785 14.95311277883920"
      },
      "geometry": {
        "type": "Point",
        "coordinates": [
          13.59986096041584,
          10.12774414490442
        ]
      }
    }
  ]
}